[Satellite]
VERSION=1.1
NAME=CZ-6A DEB
NICKNAME=CZ-6A DEB
TLE1=1 54346U 22151CR  22342.47152889  .00004543  00000+0  10624-2 0  9990
TLE2=2 54346  98.6499 347.5653 0154572 202.1977 157.2475 14.48072363  3264
STATUS=0
